LEMUR-2-LIA-MARTIN      
1 63248U 25052AQ  26068.70341042  .00006911  00000+0  60828-3 0  9993
2 63248  97.6996 322.6614 0003817 139.7155 220.4350 14.96805944 53795
STARLINK-34697          
1 64791U 25150B   26068.52016311  .00002868  00000+0  24806-3 0  9997
2 64791  70.0018 134.7957 0003641 269.2497  90.8245 14.98326239 36491
