[{"OBJECT_NAME":"LEMUR-2-LIA-MARTIN","OBJECT_ID":"2025-052AQ","EPOCH":"2026-03-09T16:52:54.660288","MEAN_MOTION":14.96805944,"ECCENTRICITY":0.00038171,"INCLINATION":97.6996,"RA_OF_ASC_NODE":322.6614,"ARG_OF_PERICENTER":139.7155,"MEAN_ANOMALY":220.435,"EPHEMERIS_TYPE":0,"CLASSIFICATION_TYPE":"U","NORAD_CAT_ID":63248,"ELEMENT_SET_NO":999,"REV_AT_EPOCH":5379,"BSTAR":0.0006082839,"MEAN_MOTION_DOT":6.911e-5,"MEAN_MOTION_DDOT":0},{"OBJECT_NAME":"STARLINK-34697","OBJECT_ID":"2025-150B","EPOCH":"2026-03-09T12:29:02.092704","MEAN_MOTION":14.98326239,"ECCENTRICITY":0.00036415,"INCLINATION":70.0018,"RA_OF_ASC_NODE":134.7957,"ARG_OF_PERICENTER":269.2497,"MEAN_ANOMALY":90.8245,"EPHEMERIS_TYPE":0,"CLASSIFICATION_TYPE":"U","NORAD_CAT_ID":64791,"ELEMENT_SET_NO":999,"REV_AT_EPOCH":3649,"BSTAR":0.00024806161,"MEAN_MOTION_DOT":2.868e-5,"MEAN_MOTION_DDOT":0}]
